{
 "generated_at": "2026-07-12T07:29:19Z",
 "sources": [
  {
   "name": "CelesTrak",
   "url": "https://celestrak.org/NORAD/elements/",
   "license": "frei verfügbar; Attribution. Ursprünglich USSPACECOM/Space-Track."
  },
  {
   "name": "GCAT (J. McDowell, planet4589.org)",
   "url": "https://planet4589.org/space/gcat/",
   "license": "CC-BY 4.0"
  }
 ],
 "satellites": [
  {
   "norad": 43437,
   "name": "SENTINEL-3B",
   "intl": "2018-039A",
   "group": "resource",
   "gcat": {
    "class": "C",
    "category": "IMG",
    "owner": "COPERN/ESA",
    "state": "I-EU"
   },
   "omm": {
    "OBJECT_NAME": "SENTINEL-3B",
    "OBJECT_ID": "2018-039A",
    "EPOCH": "2026-07-11T04:10:42.644352",
    "MEAN_MOTION": 14.26741288,
    "ECCENTRICITY": 0.00010549,
    "INCLINATION": 98.6238,
    "RA_OF_ASC_NODE": 259.361,
    "ARG_OF_PERICENTER": 120.7417,
    "MEAN_ANOMALY": 239.3868,
    "EPHEMERIS_TYPE": 0,
    "CLASSIFICATION_TYPE": "U",
    "NORAD_CAT_ID": 43437,
    "ELEMENT_SET_NO": 999,
    "REV_AT_EPOCH": 42754,
    "BSTAR": 0.00003384739,
    "MEAN_MOTION_DOT": 3.8e-7,
    "MEAN_MOTION_DDOT": 0
   }
  },
  {
   "norad": 42969,
   "name": "SENTINEL-5P",
   "intl": "2017-064A",
   "group": "resource",
   "gcat": {
    "class": "C",
    "category": "IMG",
    "owner": "COPERN/ESA",
    "state": "I-EU"
   },
   "omm": {
    "OBJECT_NAME": "SENTINEL-5P",
    "OBJECT_ID": "2017-064A",
    "EPOCH": "2026-07-11T19:14:06.156096",
    "MEAN_MOTION": 14.19522945,
    "ECCENTRICITY": 0.00011121,
    "INCLINATION": 98.7929,
    "RA_OF_ASC_NODE": 134.7584,
    "ARG_OF_PERICENTER": 92.2595,
    "MEAN_ANOMALY": 267.8708,
    "EPHEMERIS_TYPE": 0,
    "CLASSIFICATION_TYPE": "U",
    "NORAD_CAT_ID": 42969,
    "ELEMENT_SET_NO": 999,
    "REV_AT_EPOCH": 45305,
    "BSTAR": 0.000024611138,
    "MEAN_MOTION_DOT": 8e-8,
    "MEAN_MOTION_DDOT": 0
   }
  },
  {
   "norad": 46984,
   "name": "SENTINEL-6A",
   "intl": "2020-086A",
   "group": "resource",
   "gcat": {
    "class": "C",
    "category": "EOSCI",
    "owner": "COPERN/ESA",
    "state": "I-EU"
   },
   "omm": {
    "OBJECT_NAME": "SENTINEL-6A",
    "OBJECT_ID": "2020-086A",
    "EPOCH": "2026-07-11T20:03:11.931264",
    "MEAN_MOTION": 12.80930061,
    "ECCENTRICITY": 0.00078113,
    "INCLINATION": 66.0413,
    "RA_OF_ASC_NODE": 83.8588,
    "ARG_OF_PERICENTER": 269.9235,
    "MEAN_ANOMALY": 90.0885,
    "EPHEMERIS_TYPE": 0,
    "CLASSIFICATION_TYPE": "U",
    "NORAD_CAT_ID": 46984,
    "ELEMENT_SET_NO": 999,
    "REV_AT_EPOCH": 26348,
    "BSTAR": -0.000042357781,
    "MEAN_MOTION_DOT": -7.1e-7,
    "MEAN_MOTION_DDOT": 0
   }
  },
  {
   "norad": 66514,
   "name": "SENTINEL-6B",
   "intl": "2025-264A",
   "group": "resource",
   "gcat": {
    "class": "C",
    "category": "EOSCI",
    "owner": "COPERN/ESA",
    "state": "I-EU"
   },
   "omm": {
    "OBJECT_NAME": "SENTINEL-6B",
    "OBJECT_ID": "2025-264A",
    "EPOCH": "2026-07-11T20:03:41.990688",
    "MEAN_MOTION": 12.80930071,
    "ECCENTRICITY": 0.00078732,
    "INCLINATION": 66.0413,
    "RA_OF_ASC_NODE": 83.9841,
    "ARG_OF_PERICENTER": 268.7579,
    "MEAN_ANOMALY": 91.2534,
    "EPHEMERIS_TYPE": 0,
    "CLASSIFICATION_TYPE": "U",
    "NORAD_CAT_ID": 66514,
    "ELEMENT_SET_NO": 999,
    "REV_AT_EPOCH": 3032,
    "BSTAR": -0.000041261051,
    "MEAN_MOTION_DOT": -7.1e-7,
    "MEAN_MOTION_DDOT": 0
   }
  },
  {
   "norad": 28220,
   "name": "SHIYAN-1 (SY-1)",
   "intl": "2004-012A",
   "group": "resource",
   "gcat": {
    "class": null,
    "category": null,
    "owner": null,
    "state": null
   },
   "omm": {
    "OBJECT_NAME": "SHIYAN-1 (SY-1)",
    "OBJECT_ID": "2004-012A",
    "EPOCH": "2026-07-11T18:35:05.409024",
    "MEAN_MOTION": 15.34395437,
    "ECCENTRICITY": 0.00040785,
    "INCLINATION": 97.8693,
    "RA_OF_ASC_NODE": 272.4503,
    "ARG_OF_PERICENTER": 291.7953,
    "MEAN_ANOMALY": 68.2854,
    "EPHEMERIS_TYPE": 0,
    "CLASSIFICATION_TYPE": "U",
    "NORAD_CAT_ID": 28220,
    "ELEMENT_SET_NO": 999,
    "REV_AT_EPOCH": 21486,
    "BSTAR": 0.00025128698,
    "MEAN_MOTION_DOT": 0.00008284,
    "MEAN_MOTION_DDOT": 0
   }
  },
  {
   "norad": 28893,
   "name": "SINAH 1",
   "intl": "2005-043D",
   "group": "resource",
   "gcat": {
    "class": null,
    "category": null,
    "owner": null,
    "state": null
   },
   "omm": {
    "OBJECT_NAME": "SINAH 1",
    "OBJECT_ID": "2005-043D",
    "EPOCH": "2026-07-11T22:18:31.195872",
    "MEAN_MOTION": 14.6417429,
    "ECCENTRICITY": 0.00141517,
    "INCLINATION": 98.2889,
    "RA_OF_ASC_NODE": 327.4012,
    "ARG_OF_PERICENTER": 193.8296,
    "MEAN_ANOMALY": 166.252,
    "EPHEMERIS_TYPE": 0,
    "CLASSIFICATION_TYPE": "U",
    "NORAD_CAT_ID": 28893,
    "ELEMENT_SET_NO": 999,
    "REV_AT_EPOCH": 10414,
    "BSTAR": 0.000039126555,
    "MEAN_MOTION_DOT": 0.00000157,
    "MEAN_MOTION_DDOT": 0
   }
  },
  {
   "norad": 39418,
   "name": "SKYSAT-A",
   "intl": "2013-066C",
   "group": "resource",
   "gcat": {
    "class": "B",
    "category": "IMG",
    "owner": "SKYBOX",
    "state": "US"
   },
   "omm": {
    "OBJECT_NAME": "SKYSAT-A",
    "OBJECT_ID": "2013-066C",
    "EPOCH": "2026-07-11T22:12:30.308256",
    "MEAN_MOTION": 15.13105178,
    "ECCENTRICITY": 0.00201835,
    "INCLINATION": 97.3805,
    "RA_OF_ASC_NODE": 241.5341,
    "ARG_OF_PERICENTER": 225.2191,
    "MEAN_ANOMALY": 134.74,
    "EPHEMERIS_TYPE": 0,
    "CLASSIFICATION_TYPE": "U",
    "NORAD_CAT_ID": 39418,
    "ELEMENT_SET_NO": 999,
    "REV_AT_EPOCH": 69222,
    "BSTAR": 0.000086825938,
    "MEAN_MOTION_DOT": 0.0000148,
    "MEAN_MOTION_DDOT": 0
   }
  },
  {
   "norad": 40072,
   "name": "SKYSAT-B",
   "intl": "2014-037D",
   "group": "resource",
   "gcat": {
    "class": "B",
    "category": "IMG",
    "owner": "SKYBOX",
    "state": "US"
   },
   "omm": {
    "OBJECT_NAME": "SKYSAT-B",
    "OBJECT_ID": "2014-037D",
    "EPOCH": "2026-07-11T20:53:17.414880",
    "MEAN_MOTION": 14.88087332,
    "ECCENTRICITY": 0.00053095,
    "INCLINATION": 98.3853,
    "RA_OF_ASC_NODE": 153.2453,
    "ARG_OF_PERICENTER": 183.368,
    "MEAN_ANOMALY": 176.75,
    "EPHEMERIS_TYPE": 0,
    "CLASSIFICATION_TYPE": "U",
    "NORAD_CAT_ID": 40072,
    "ELEMENT_SET_NO": 999,
    "REV_AT_EPOCH": 64963,
    "BSTAR": 0.000079264116,
    "MEAN_MOTION_DOT": 0.00000667,
    "MEAN_MOTION_DDOT": 0
   }
  },
  {
   "norad": 41601,
   "name": "SKYSAT-C1",
   "intl": "2016-040C",
   "group": "resource",
   "gcat": {
    "class": "B",
    "category": "IMG",
    "owner": "TBELLA",
    "state": "US"
   },
   "omm": {
    "OBJECT_NAME": "SKYSAT-C1",
    "OBJECT_ID": "2016-040C",
    "EPOCH": "2026-07-11T15:19:14.131200",
    "MEAN_MOTION": 15.36708815,
    "ECCENTRICITY": 0.0000645,
    "INCLINATION": 96.9557,
    "RA_OF_ASC_NODE": 223.0369,
    "ARG_OF_PERICENTER": 355.4804,
    "MEAN_ANOMALY": 4.6435,
    "EPHEMERIS_TYPE": 0,
    "CLASSIFICATION_TYPE": "U",
    "NORAD_CAT_ID": 41601,
    "ELEMENT_SET_NO": 999,
    "REV_AT_EPOCH": 56162,
    "BSTAR": 0.00015588995,
    "MEAN_MOTION_DOT": 0.00005514,
    "MEAN_MOTION_DDOT": 0
   }
  },
  {
   "norad": 42988,
   "name": "SKYSAT-C10",
   "intl": "2017-068B",
   "group": "resource",
   "gcat": {
    "class": "B",
    "category": "IMG",
    "owner": "PLABST",
    "state": "US"
   },
   "omm": {
    "OBJECT_NAME": "SKYSAT-C10",
    "OBJECT_ID": "2017-068B",
    "EPOCH": "2026-07-11T22:27:58.277952",
    "MEAN_MOTION": 15.35074302,
    "ECCENTRICITY": 0.00014034,
    "INCLINATION": 97.4526,
    "RA_OF_ASC_NODE": 330.0351,
    "ARG_OF_PERICENTER": 108.5337,
    "MEAN_ANOMALY": 251.6059,
    "EPHEMERIS_TYPE": 0,
    "CLASSIFICATION_TYPE": "U",
    "NORAD_CAT_ID": 42988,
    "ELEMENT_SET_NO": 999,
    "REV_AT_EPOCH": 48615,
    "BSTAR": 0.00019221202,
    "MEAN_MOTION_DOT": 0.00006459,
    "MEAN_MOTION_DDOT": 0
   }
  }
 ]
}
